[
    {
        "OBJECT_NAME": "BEIDOU-2 G7",
        "OBJECT_ID": "2016-037A",
        "EPOCH": "2025-03-03T13:33:04.056192",
        "MEAN_MOTION": 1.00273381,
        "ECCENTRICITY": 0.001024,
        "INCLINATION": 1.5063,
        "RA_OF_ASC_NODE": 67.3677,
        "ARG_OF_PERICENTER": 332.0772,
        "MEAN_ANOMALY": 75.9396,
        "EPHEMERIS_TYPE": 0,
        "CLASSIFICATION_TYPE": "U",
        "NORAD_CAT_ID": 41586,
        "ELEMENT_SET_NO": 999,
        "REV_AT_EPOCH": 217,
        "BSTAR": 0,
        "MEAN_MOTION_DOT": -3.57e-06,
        "MEAN_MOTION_DDOT": 0
    },
    {
        "OBJECT_NAME": "BEIDOU-3 M1",
        "OBJECT_ID": "2017-069A",
        "EPOCH": "2025-03-03T05:22:26.036544",
        "MEAN_MOTION": 1.86231024,
        "ECCENTRICITY": 0.0012269,
        "INCLINATION": 56.2789,
        "RA_OF_ASC_NODE": 78.6466,
        "ARG_OF_PERICENTER": 303.1384,
        "MEAN_ANOMALY": 56.789,
        "EPHEMERIS_TYPE": 0,
        "CLASSIFICATION_TYPE": "U",
        "NORAD_CAT_ID": 43001,
        "ELEMENT_SET_NO": 999,
        "REV_AT_EPOCH": 4983,
        "BSTAR": 0,
        "MEAN_MOTION_DOT": 1e-08,
        "MEAN_MOTION_DDOT": 0
    },
    {
        "OBJECT_NAME": "BEIDOU-3 M2",
        "OBJECT_ID": "2017-069B",
        "EPOCH": "2025-03-03T03:52:47.006688",
        "MEAN_MOTION": 1.86230831,
        "ECCENTRICITY": 0.0009652,
        "INCLINATION": 56.2782,
        "RA_OF_ASC_NODE": 78.6849,
        "ARG_OF_PERICENTER": 321.8858,
        "MEAN_ANOMALY": 38.0916,
        "EPHEMERIS_TYPE": 0,
        "CLASSIFICATION_TYPE": "U",
        "NORAD_CAT_ID": 43002,
        "ELEMENT_SET_NO": 999,
        "REV_AT_EPOCH": 4982,
        "BSTAR": 0,
        "MEAN_MOTION_DOT": 2e-08,
        "MEAN_MOTION_DDOT": 0
    },
    {
        "OBJECT_NAME": "BEIDOU-3 M7",
        "OBJECT_ID": "2018-003A",
        "EPOCH": "2025-03-02T08:54:55.018368",
        "MEAN_MOTION": 1.86232274,
        "ECCENTRICITY": 0.0004472,
        "INCLINATION": 54.7362,
        "RA_OF_ASC_NODE": 318.7148,
        "ARG_OF_PERICENTER": 61.1349,
        "MEAN_ANOMALY": 298.9651,
        "EPHEMERIS_TYPE": 0,
        "CLASSIFICATION_TYPE": "U",
        "NORAD_CAT_ID": 43107,
        "ELEMENT_SET_NO": 999,
        "REV_AT_EPOCH": 4856,
        "BSTAR": 0,
        "MEAN_MOTION_DOT": -5.8e-07,
        "MEAN_MOTION_DDOT": 0
    },
    {
        "OBJECT_NAME": "BEIDOU-3 M8",
        "OBJECT_ID": "2018-003B",
        "EPOCH": "2025-03-01T05:45:46.668672",
        "MEAN_MOTION": 1.86230763,
        "ECCENTRICITY": 0.0003472,
        "INCLINATION": 54.73,
        "RA_OF_ASC_NODE": 318.7383,
        "ARG_OF_PERICENTER": 285.8667,
        "MEAN_ANOMALY": 74.1526,
        "EPHEMERIS_TYPE": 0,
        "CLASSIFICATION_TYPE": "U",
        "NORAD_CAT_ID": 43108,
        "ELEMENT_SET_NO": 999,
        "REV_AT_EPOCH": 4855,
        "BSTAR": 0,
        "MEAN_MOTION_DOT": -5.1e-07,
        "MEAN_MOTION_DDOT": 0
    },
    {
        "OBJECT_NAME": "BEIDOU-3 M4",
        "OBJECT_ID": "2018-018A",
        "EPOCH": "2025-03-03T07:00:34.694208",
        "MEAN_MOTION": 1.86230932,
        "ECCENTRICITY": 0.0006623,
        "INCLINATION": 56.2379,
        "RA_OF_ASC_NODE": 78.7245,
        "ARG_OF_PERICENTER": 341.997,
        "MEAN_ANOMALY": 18.0245,
        "EPHEMERIS_TYPE": 0,
        "CLASSIFICATION_TYPE": "U",
        "NORAD_CAT_ID": 43207,
        "ELEMENT_SET_NO": 999,
        "REV_AT_EPOCH": 4797,
        "BSTAR": 0,
        "MEAN_MOTION_DOT": 1e-08,
        "MEAN_MOTION_DDOT": 0
    },
    {
        "OBJECT_NAME": "BEIDOU-3 M3",
        "OBJECT_ID": "2018-018B",
        "EPOCH": "2025-03-03T08:36:22.837824",
        "MEAN_MOTION": 1.86231031,
        "ECCENTRICITY": 0.0009809,
        "INCLINATION": 56.2374,
        "RA_OF_ASC_NODE": 78.7265,
        "ARG_OF_PERICENTER": 312.4868,
        "MEAN_ANOMALY": 47.4749,
        "EPHEMERIS_TYPE": 0,
        "CLASSIFICATION_TYPE": "U",
        "NORAD_CAT_ID": 43208,
        "ELEMENT_SET_NO": 999,
        "REV_AT_EPOCH": 4797,
        "BSTAR": 0,
        "MEAN_MOTION_DOT": 0,
        "MEAN_MOTION_DDOT": 0
    },
    {
        "OBJECT_NAME": "BEIDOU-3 M9",
        "OBJECT_ID": "2018-029A",
        "EPOCH": "2025-03-02T12:05:16.981728",
        "MEAN_MOTION": 1.86232306,
        "ECCENTRICITY": 0.0001114,
        "INCLINATION": 54.6114,
        "RA_OF_ASC_NODE": 316.3926,
        "ARG_OF_PERICENTER": 339.0329,
        "MEAN_ANOMALY": 21.019,
        "EPHEMERIS_TYPE": 0,
        "CLASSIFICATION_TYPE": "U",
        "NORAD_CAT_ID": 43245,
        "ELEMENT_SET_NO": 999,
        "REV_AT_EPOCH": 4711,
        "BSTAR": 0,
        "MEAN_MOTION_DOT": -5.6e-07,
        "MEAN_MOTION_DDOT": 0
    },
    {
        "OBJECT_NAME": "BEIDOU-3 M10",
        "OBJECT_ID": "2018-029B",
        "EPOCH": "2025-03-02T23:18:35.485920",
        "MEAN_MOTION": 1.86228819,
        "ECCENTRICITY": 0.000506,
        "INCLINATION": 54.6085,
        "RA_OF_ASC_NODE": 316.4036,
        "ARG_OF_PERICENTER": 12.3998,
        "MEAN_ANOMALY": 347.6675,
        "EPHEMERIS_TYPE": 0,
        "CLASSIFICATION_TYPE": "U",
        "NORAD_CAT_ID": 43246,
        "ELEMENT_SET_NO": 999,
        "REV_AT_EPOCH": 4711,
        "BSTAR": 0,
        "MEAN_MOTION_DOT": -5.9e-07,
        "MEAN_MOTION_DDOT": 0
    },
    {
        "OBJECT_NAME": "BEIDOU-2 IGSO-7",
        "OBJECT_ID": "2018-057A",
        "EPOCH": "2025-03-02T20:29:43.094400",
        "MEAN_MOTION": 1.0028893,
        "ECCENTRICITY": 0.0085414,
        "INCLINATION": 55.1592,
        "RA_OF_ASC_NODE": 167.1468,
        "ARG_OF_PERICENTER": 234.8503,
        "MEAN_ANOMALY": 178.2626,
        "EPHEMERIS_TYPE": 0,
        "CLASSIFICATION_TYPE": "U",
        "NORAD_CAT_ID": 43539,
        "ELEMENT_SET_NO": 999,
        "REV_AT_EPOCH": 2440,
        "BSTAR": 0,
        "MEAN_MOTION_DOT": -1.37e-06,
        "MEAN_MOTION_DDOT": 0
    },
    {
        "OBJECT_NAME": "BEIDOU-3 M5",
        "OBJECT_ID": "2018-062A",
        "EPOCH": "2025-03-02T02:56:51.501984",
        "MEAN_MOTION": 1.86228382,
        "ECCENTRICITY": 0.0001629,
        "INCLINATION": 54.1094,
        "RA_OF_ASC_NODE": 198.354,
        "ARG_OF_PERICENTER": 306.5389,
        "MEAN_ANOMALY": 53.4001,
        "EPHEMERIS_TYPE": 0,
        "CLASSIFICATION_TYPE": "U",
        "NORAD_CAT_ID": 43581,
        "ELEMENT_SET_NO": 999,
        "REV_AT_EPOCH": 4484,
        "BSTAR": 0,
        "MEAN_MOTION_DOT": 4.2e-07,
        "MEAN_MOTION_DDOT": 0
    },
    {
        "OBJECT_NAME": "BEIDOU-3 M6",
        "OBJECT_ID": "2018-062B",
        "EPOCH": "2025-03-03T01:28:11.774496",
        "MEAN_MOTION": 1.86229179,
        "ECCENTRICITY": 0.0006053,
        "INCLINATION": 54.1089,
        "RA_OF_ASC_NODE": 198.3113,
        "ARG_OF_PERICENTER": 42.2299,
        "MEAN_ANOMALY": 317.7752,
        "EPHEMERIS_TYPE": 0,
        "CLASSIFICATION_TYPE": "U",
        "NORAD_CAT_ID": 43582,
        "ELEMENT_SET_NO": 999,
        "REV_AT_EPOCH": 4486,
        "BSTAR": 0,
        "MEAN_MOTION_DOT": 4.6e-07,
        "MEAN_MOTION_DDOT": 0
    },
    {
        "OBJECT_NAME": "BEIDOU-3 M12",
        "OBJECT_ID": "2018-067A",
        "EPOCH": "2025-03-01T09:14:41.764704",
        "MEAN_MOTION": 1.86227695,
        "ECCENTRICITY": 0.0008125,
        "INCLINATION": 54.2014,
        "RA_OF_ASC_NODE": 197.0734,
        "ARG_OF_PERICENTER": 36.0447,
        "MEAN_ANOMALY": 323.9618,
        "EPHEMERIS_TYPE": 0,
        "CLASSIFICATION_TYPE": "U",
        "NORAD_CAT_ID": 43602,
        "ELEMENT_SET_NO": 999,
        "REV_AT_EPOCH": 4431,
        "BSTAR": 0,
        "MEAN_MOTION_DOT": 3.7e-07,
        "MEAN_MOTION_DDOT": 0
    }
]