BEIDOU-2 G7 (C03)       
1 41586U 16037A   25062.56463028 -.00000357  00000+0  00000+0 0  9994
2 41586   1.5063  67.3677 0010240 332.0772  75.9396  1.00273381  2172
BEIDOU-3 M1 (C19)       
1 43001U 17069A   25062.22391246  .00000001  00000+0  00000+0 0  9994
2 43001  56.2789  78.6466 0012269 303.1384  56.7890  1.86231024 49832
BEIDOU-3 M2 (C20)       
1 43002U 17069B   25062.16165517  .00000002  00000+0  00000+0 0  9999
2 43002  56.2782  78.6849 0009652 321.8858  38.0916  1.86230831 49822
BEIDOU-3 M7 (C27)       
1 43107U 18003A   25061.37147012 -.00000058  00000+0  00000+0 0  9998
2 43107  54.7362 318.7148 0004472  61.1349 298.9651  1.86232274 48565
BEIDOU-3 M8 (C28)       
1 43108U 18003B   25060.24012348 -.00000051  00000+0  00000+0 0  9990
2 43108  54.7300 318.7383 0003472 285.8667  74.1526  1.86230763 48551
BEIDOU-3 M4 (C22)       
1 43207U 18018A   25062.29206822  .00000001  00000+0  00000+0 0  9999
2 43207  56.2379  78.7245 0006623 341.9970  18.0245  1.86230932 47974
BEIDOU-3 M3 (C21)       
1 43208U 18018B   25062.35859766  .00000000  00000+0  00000+0 0  9997
2 43208  56.2374  78.7265 0009809 312.4868  47.4749  1.86231031 47976
BEIDOU-3 M9 (C29)       
1 43245U 18029A   25061.50366877 -.00000056  00000+0  00000+0 0  9994
2 43245  54.6114 316.3926 0001114 339.0329  21.0190  1.86232306 47114
BEIDOU-3 M10 (C30)      
1 43246U 18029B   25061.97124405 -.00000059  00000+0  00000+0 0  9998
2 43246  54.6085 316.4036 0005060  12.3998 347.6675  1.86228819 47111
BEIDOU-2 IGSO-7 (C16)   
1 43539U 18057A   25061.85397100 -.00000137  00000+0  00000+0 0  9992
2 43539  55.1592 167.1468 0085414 234.8503 178.2626  1.00288930 24406
BEIDOU-3 M5 (C23)       
1 43581U 18062A   25061.12281831  .00000042  00000+0  00000+0 0  9992
2 43581  54.1094 198.3540 0001629 306.5389  53.4001  1.86228382 44841
BEIDOU-3 M6 (C24)       
1 43582U 18062B   25062.06124739  .00000046  00000+0  00000+0 0  9994
2 43582  54.1089 198.3113 0006053  42.2299 317.7752  1.86229179 44868
BEIDOU-3 M12 (C26)      
1 43602U 18067A   25060.38520561  .00000037  00000+0  00000+0 0  9998
2 43602  54.2014 197.0734 0008125  36.0447 323.9618  1.86227695 44314
